{"type": "FeatureCollection", "features": [ {"type": "Feature", "properties": {"norad_id": 42987, "name": "SKYSAT-C11", "group": "resource", "lat": 52.049046707861, "lon": 123.71268361471994, "alt_km": 417.83134225243884, "timestamp": "2025-12-21T14:40:47.568272+00:00", "meta": {"OBJECT_NAME": "SKYSAT-C11", "OBJECT_ID": "2017-068A", "EPOCH": "2025-12-20T21:23:06.896256", "MEAN_MOTION": 15.4776797, "ECCENTRICITY": 0.0001167, "INCLINATION": 97.4147, "RA_OF_ASC_NODE": 132.5864, "ARG_OF_PERICENTER": 98.9952, "MEAN_ANOMALY": 261.1431, "EPHEMERIS_TYPE": 0, "CLASSIFICATION_TYPE": "U", "NORAD_CAT_ID": 42987, "ELEMENT_SET_NO": 999, "REV_AT_EPOCH": 45557, "BSTAR": 0.00031099, "MEAN_MOTION_DOT": 0.00016039, "MEAN_MOTION_DDOT": 0}, "tle": {"line1": "1 42987U 17068A   25354.89105204  .00016039  00000+0  31099-3 0  9993", "line2": "2 42987  97.4147 132.5864 0001167  98.9952 261.1431 15.47767970455577"}}, "geometry": {"type": "Point", "coordinates": [123.71268361471994, 52.049046707861]}}, {"type": "Feature", "properties": {"norad_id": 42988, "name": "SKYSAT-C10", "group": "resource", "lat": -0.4497165050899245, "lon": 126.546724483802, "alt_km": 471.6102360626701, "timestamp": "2025-12-21T14:40:47.568282+00:00", "meta": {"OBJECT_NAME": "SKYSAT-C10", "OBJECT_ID": "2017-068B", "EPOCH": "2025-12-20T21:26:27.282912", "MEAN_MOTION": 15.32222184, "ECCENTRICITY": 0.0005394, "INCLINATION": 97.4266, "RA_OF_ASC_NODE": 125.7677, "ARG_OF_PERICENTER": 81.245, "MEAN_ANOMALY": 278.9402, "EPHEMERIS_TYPE": 0, "CLASSIFICATION_TYPE": "U", "NORAD_CAT_ID": 42988, "ELEMENT_SET_NO": 999, "REV_AT_EPOCH": 45504, "BSTAR": 0.00024439, "MEAN_MOTION_DOT": 7.528e-05, "MEAN_MOTION_DDOT": 0}, "tle": {"line1": "1 42988U 17068B   25354.89337133  .00007528  00000+0  24439-3 0  9995", "line2": "2 42988  97.4266 125.7677 0005394  81.2450 278.9402 15.32222184455043"}}, "geometry": {"type": "Point", "coordinates": [126.546724483802, -0.4497165050899245]}}, {"type": "Feature", "properties": {"norad_id": 42989, "name": "SKYSAT-C9", "group": "resource", "lat": -24.997851306983534, "lon": 129.42008346083315, "alt_km": 462.2016831074843, "timestamp": "2025-12-21T14:40:47.568292+00:00", "meta": {"OBJECT_NAME": "SKYSAT-C9", "OBJECT_ID": "2017-068C", "EPOCH": "2025-12-21T03:50:47.634720", "MEAN_MOTION": 15.36245357, "ECCENTRICITY": 0.00104418, "INCLINATION": 97.4194, "RA_OF_ASC_NODE": 125.4816, "ARG_OF_PERICENTER": 60.965, "MEAN_ANOMALY": 299.2639, "EPHEMERIS_TYPE": 0, "CLASSIFICATION_TYPE": "U", "NORAD_CAT_ID": 42989, "ELEMENT_SET_NO": 999, "REV_AT_EPOCH": 45537, "BSTAR": 0.00025805992, "MEAN_MOTION_DOT": 9.051e-05, "MEAN_MOTION_DDOT": 0}, "tle": {"line1": "1 42989U 17068C   25355.16027355  .00009051  00000+0  25806-3 0  9991", "line2": "2 42989  97.4194 125.4816 0010441  60.9650 299.2639 15.36245357455376"}}, "geometry": {"type": "Point", "coordinates": [129.42008346083315, -24.997851306983534]}}, {"type": "Feature", "properties": {"norad_id": 42990, "name": "SKYSAT-C8", "group": "resource", "lat": -25.441600995497772, "lon": -57.907378323431125, "alt_km": 472.3342963541336, "timestamp": "2025-12-21T14:40:47.568303+00:00", "meta": {"OBJECT_NAME": "SKYSAT-C8", "OBJECT_ID": "2017-068D", "EPOCH": "2025-12-21T02:49:14.051136", "MEAN_MOTION": 15.33089756, "ECCENTRICITY": 0.00010449, "INCLINATION": 97.4289, "RA_OF_ASC_NODE": 125.1551, "ARG_OF_PERICENTER": 299.6918, "MEAN_ANOMALY": 60.422, "EPHEMERIS_TYPE": 0, "CLASSIFICATION_TYPE": "U", "NORAD_CAT_ID": 42990, "ELEMENT_SET_NO": 999, "REV_AT_EPOCH": 45499, "BSTAR": 0.00026036804, "MEAN_MOTION_DOT": 8.244e-05, "MEAN_MOTION_DDOT": 0}, "tle": {"line1": "1 42990U 17068D   25355.11752374  .00008244  00000+0  26037-3 0  9994", "line2": "2 42990  97.4289 125.1551 0001044 299.6918  60.4220 15.33089756454990"}}, "geometry": {"type": "Point", "coordinates": [-57.907378323431125, -25.441600995497772]}}, {"type": "Feature", "properties": {"norad_id": 42991, "name": "SKYSAT-C7", "group": "resource", "lat": 41.42205212706125, "lon": 120.07374202162403, "alt_km": 460.34702053334604, "timestamp": "2025-12-21T14:40:47.568313+00:00", "meta": {"OBJECT_NAME": "SKYSAT-C7", "OBJECT_ID": "2017-068E", "EPOCH": "2025-12-20T21:15:36.514656", "MEAN_MOTION": 15.32485179, "ECCENTRICITY": 0.000715, "INCLINATION": 97.4296, "RA_OF_ASC_NODE": 125.9567, "ARG_OF_PERICENTER": 31.5746, "MEAN_ANOMALY": 328.5923, "EPHEMERIS_TYPE": 0, "CLASSIFICATION_TYPE": "U", "NORAD_CAT_ID": 42991, "ELEMENT_SET_NO": 999, "REV_AT_EPOCH": 45502, "BSTAR": 0.00024119, "MEAN_MOTION_DOT": 7.492e-05, "MEAN_MOTION_DDOT": 0}, "tle": {"line1": "1 42991U 17068E   25354.88583929  .00007492  00000+0  24119-3 0  9999", "line2": "2 42991  97.4296 125.9567 0007150  31.5746 328.5923 15.32485179455021"}}, "geometry": {"type": "Point", "coordinates": [120.07374202162403, 41.42205212706125]}}, {"type": "Feature", "properties": {"norad_id": 42992, "name": "SKYSAT-C6", "group": "resource", "lat": 47.28406072418802, "lon": -44.754635786520204, "alt_km": 465.77093144976516, "timestamp": "2025-12-21T14:40:47.568323+00:00", "meta": {"OBJECT_NAME": "SKYSAT-C6", "OBJECT_ID": "2017-068F", "EPOCH": "2025-12-21T03:07:47.399808", "MEAN_MOTION": 15.31646013, "ECCENTRICITY": 0.00049522, "INCLINATION": 97.4327, "RA_OF_ASC_NODE": 126.6341, "ARG_OF_PERICENTER": 60.6728, "MEAN_ANOMALY": 299.5008, "EPHEMERIS_TYPE": 0, "CLASSIFICATION_TYPE": "U", "NORAD_CAT_ID": 42992, "ELEMENT_SET_NO": 999, "REV_AT_EPOCH": 45504, "BSTAR": 0.00024392737, "MEAN_MOTION_DOT": 7.378e-05, "MEAN_MOTION_DDOT": 0}, "tle": {"line1": "1 42992U 17068F   25355.13040972  .00007378  00000+0  24393-3 0  9992", "line2": "2 42992  97.4327 126.6341 0004952  60.6728 299.5008 15.31646013455043"}}, "geometry": {"type": "Point", "coordinates": [-44.754635786520204, 47.28406072418802]}}, {"type": "Feature", "properties": {"norad_id": 43111, "name": "CARTOSAT-2F", "group": "resource", "lat": -25.656218683817784, "lon": -130.4879020529806, "alt_km": 514.052413246256, "timestamp": "2025-12-21T14:40:47.568332+00:00", "meta": {"OBJECT_NAME": "CARTOSAT-2F", "OBJECT_ID": "2018-004A", "EPOCH": "2025-12-21T05:52:22.951776", "MEAN_MOTION": 15.19197745, "ECCENTRICITY": 0.00013658, "INCLINATION": 97.4309, "RA_OF_ASC_NODE": 52.7454, "ARG_OF_PERICENTER": 113.0867, "MEAN_ANOMALY": 247.0512, "EPHEMERIS_TYPE": 0, "CLASSIFICATION_TYPE": "U", "NORAD_CAT_ID": 43111, "ELEMENT_SET_NO": 999, "REV_AT_EPOCH": 44031, "BSTAR": 0.00013739162, "MEAN_MOTION_DOT": 2.823e-05, "MEAN_MOTION_DDOT": 0}, "tle": {"line1": "1 43111U 18004A   25355.24471009  .00002823  00000+0  13739-3 0  9990", "line2": "2 43111  97.4309  52.7454 0001365 113.0867 247.0512 15.19197745440314"}}, "geometry": {"type": "Point", "coordinates": [-130.4879020529806, -25.656218683817784]}}, {"type": "Feature", "properties": {"norad_id": 43259, "name": "GAOFEN-1 02", "group": "resource", "lat": 45.709253715822875, "lon": 45.03128021347653, "alt_km": 637.8577158709322, "timestamp": "2025-12-21T14:40:47.568342+00:00", "meta": {"OBJECT_NAME": "GAOFEN-1 02", "OBJECT_ID": "2018-031A", "EPOCH": "2025-12-21T06:20:17.415744", "MEAN_MOTION": 14.76431644, "ECCENTRICITY": 0.00023638, "INCLINATION": 98.0799, "RA_OF_ASC_NODE": 53.0568, "ARG_OF_PERICENTER": 183.7378, "MEAN_ANOMALY": 176.3814, "EPHEMERIS_TYPE": 0, "CLASSIFICATION_TYPE": "U", "NORAD_CAT_ID": 43259, "ELEMENT_SET_NO": 999, "REV_AT_EPOCH": 41644, "BSTAR": 0.00013206153, "MEAN_MOTION_DOT": 8.66e-06, "MEAN_MOTION_DDOT": 0}, "tle": {"line1": "1 43259U 18031A   25355.26409046  .00000866  00000+0  13206-3 0  9991", "line2": "2 43259  98.0799  53.0568 0002363 183.7378 176.3814 14.76431644416444"}}, "geometry": {"type": "Point", "coordinates": [45.03128021347653, 45.709253715822875]}}, {"type": "Feature", "properties": {"norad_id": 43260, "name": "GAOFEN-1 03", "group": "resource", "lat": 17.464413352642786, "lon": -124.15892075394248, "alt_km": 641.5003582988347, "timestamp": "2025-12-21T14:40:47.568352+00:00", "meta": {"OBJECT_NAME": "GAOFEN-1 03", "OBJECT_ID": "2018-031B", "EPOCH": "2025-12-21T07:26:28.454784", "MEAN_MOTION": 14.76453138, "ECCENTRICITY": 0.00016987, "INCLINATION": 98.0787, "RA_OF_ASC_NODE": 52.9782, "ARG_OF_PERICENTER": 276.7353, "MEAN_ANOMALY": 83.3663, "EPHEMERIS_TYPE": 0, "CLASSIFICATION_TYPE": "U", "NORAD_CAT_ID": 43260, "ELEMENT_SET_NO": 999, "REV_AT_EPOCH": 41644, "BSTAR": 0.00011254327, "MEAN_MOTION_DOT": 7.31e-06, "MEAN_MOTION_DDOT": 0}, "tle": {"line1": "1 43260U 18031B   25355.31005156  .00000731  00000+0  11254-3 0  9995", "line2": "2 43260  98.0787  52.9782 0001698 276.7353  83.3663 14.76453138416446"}}, "geometry": {"type": "Point", "coordinates": [-124.15892075394248, 17.464413352642786]}}, {"type": "Feature", "properties": {"norad_id": 43262, "name": "GAOFEN-1 04", "group": "resource", "lat": -67.00990827944561, "lon": 73.01363719328772, "alt_km": 648.1423952090518, "timestamp": "2025-12-21T14:40:47.568363+00:00", "meta": {"OBJECT_NAME": "GAOFEN-1 04", "OBJECT_ID": "2018-031D", "EPOCH": "2025-12-21T06:51:23.791392", "MEAN_MOTION": 14.76422826, "ECCENTRICITY": 6.912e-05, "INCLINATION": 98.0801, "RA_OF_ASC_NODE": 53.1249, "ARG_OF_PERICENTER": 54.9311, "MEAN_ANOMALY": 305.1963, "EPHEMERIS_TYPE": 0, "CLASSIFICATION_TYPE": "U", "NORAD_CAT_ID": 43262, "ELEMENT_SET_NO": 999, "REV_AT_EPOCH": 41643, "BSTAR": 0.00011410275, "MEAN_MOTION_DOT": 7.41e-06, "MEAN_MOTION_DDOT": 0}, "tle": {"line1": "1 43262U 18031D   25355.28569203  .00000741  00000+0  11410-3 0  9996", "line2": "2 43262  98.0801  53.1249 0000691  54.9311 305.1963 14.76422826416435"}}, "geometry": {"type": "Point", "coordinates": [73.01363719328772, -67.00990827944561]}}]}